{"type": "FeatureCollection", "features": [ {"type": "Feature", "properties": {"norad_id": 44804, "name": "CARTOSAT-3", "group": "resource", "lat": -14.04067904978049, "lon": 55.763816200470764, "alt_km": 510.17641206837743, "timestamp": "2025-12-20T09:36:01.289424+00:00", "meta": {"OBJECT_NAME": "CARTOSAT-3", "OBJECT_ID": "2019-081A", "EPOCH": "2025-12-20T04:55:12.552096", "MEAN_MOTION": 15.19208509, "ECCENTRICITY": 0.0013925, "INCLINATION": 97.4581, "RA_OF_ASC_NODE": 53.6939, "ARG_OF_PERICENTER": 59.9361, "MEAN_ANOMALY": 300.3253, "EPHEMERIS_TYPE": 0, "CLASSIFICATION_TYPE": "U", "NORAD_CAT_ID": 44804, "ELEMENT_SET_NO": 999, "REV_AT_EPOCH": 33629, "BSTAR": 4.9708e-05, "MEAN_MOTION_DOT": 9.8e-06, "MEAN_MOTION_DDOT": 0}, "tle": {"line1": "1 44804U 19081A   25354.20500639  .00000980  00000+0  49708-4 0  9991", "line2": "2 44804  97.4581  53.6939 0013925  59.9361 300.3253 15.19208509336293"}}, "geometry": {"type": "Point", "coordinates": [55.763816200470764, -14.04067904978049]}}, {"type": "Feature", "properties": {"norad_id": 44819, "name": "GAOFEN-12 01", "group": "resource", "lat": 69.31552354954037, "lon": -158.19607310834039, "alt_km": 620.4192639011662, "timestamp": "2025-12-20T09:36:01.289434+00:00", "meta": {"OBJECT_NAME": "GAOFEN-12 01", "OBJECT_ID": "2019-082A", "EPOCH": "2025-12-20T04:14:35.805120", "MEAN_MOTION": 14.80665393, "ECCENTRICITY": 0.0001811, "INCLINATION": 97.8124, "RA_OF_ASC_NODE": 0.2626, "ARG_OF_PERICENTER": 196.1336, "MEAN_ANOMALY": 163.982, "EPHEMERIS_TYPE": 0, "CLASSIFICATION_TYPE": "U", "NORAD_CAT_ID": 44819, "ELEMENT_SET_NO": 999, "REV_AT_EPOCH": 32760, "BSTAR": 5.0584e-05, "MEAN_MOTION_DOT": 3.38e-06, "MEAN_MOTION_DDOT": 0}, "tle": {"line1": "1 44819U 19082A   25354.17680330  .00000338  00000+0  50584-4 0  9992", "line2": "2 44819  97.8124   0.2626 0001811 196.1336 163.9820 14.80665393327607"}}, "geometry": {"type": "Point", "coordinates": [-158.19607310834039, 69.31552354954037]}}, {"type": "Feature", "properties": {"norad_id": 44873, "name": "CSG-1", "group": "resource", "lat": -78.26548826774707, "lon": -46.21112720592812, "alt_km": 630.9251102207318, "timestamp": "2025-12-20T09:36:01.289444+00:00", "meta": {"OBJECT_NAME": "CSG-1", "OBJECT_ID": "2019-092A", "EPOCH": "2025-12-20T05:11:04.565184", "MEAN_MOTION": 14.82149588, "ECCENTRICITY": 0.0001483, "INCLINATION": 97.8803, "RA_OF_ASC_NODE": 175.4275, "ARG_OF_PERICENTER": 86.1018, "MEAN_ANOMALY": 274.0364, "EPHEMERIS_TYPE": 0, "CLASSIFICATION_TYPE": "U", "NORAD_CAT_ID": 44873, "ELEMENT_SET_NO": 999, "REV_AT_EPOCH": 32496, "BSTAR": 5.6541e-05, "MEAN_MOTION_DOT": 3.98e-06, "MEAN_MOTION_DDOT": 0}, "tle": {"line1": "1 44873U 19092A   25354.21602506  .00000398  00000+0  56541-4 0  9992", "line2": "2 44873  97.8803 175.4275 0001483  86.1018 274.0364 14.82149588324964"}}, "geometry": {"type": "Point", "coordinates": [-46.21112720592812, -78.26548826774707]}}, {"type": "Feature", "properties": {"norad_id": 46277, "name": "NEMO-HD", "group": "resource", "lat": -43.366402538529364, "lon": -133.4766213554604, "alt_km": 452.3934385920211, "timestamp": "2025-12-20T09:36:01.289454+00:00", "meta": {"OBJECT_NAME": "NEMO-HD", "OBJECT_ID": "2020-061F", "EPOCH": "2025-12-20T03:57:18.946368", "MEAN_MOTION": 15.40471165, "ECCENTRICITY": 0.0001392, "INCLINATION": 97.2204, "RA_OF_ASC_NODE": 53.1688, "ARG_OF_PERICENTER": 51.6776, "MEAN_ANOMALY": 308.4596, "EPHEMERIS_TYPE": 0, "CLASSIFICATION_TYPE": "U", "NORAD_CAT_ID": 46277, "ELEMENT_SET_NO": 999, "REV_AT_EPOCH": 29438, "BSTAR": 0.00018457, "MEAN_MOTION_DOT": 7.396e-05, "MEAN_MOTION_DDOT": 0}, "tle": {"line1": "1 46277U 20061F   25354.16480262  .00007396  00000+0  18457-3 0  9995", "line2": "2 46277  97.2204  53.1688 0001392  51.6776 308.4596 15.40471165294385"}}, "geometry": {"type": "Point", "coordinates": [-133.4766213554604, -43.366402538529364]}}, {"type": "Feature", "properties": {"norad_id": 46984, "name": "SENTINEL-6A", "group": "resource", "lat": 36.059886804182256, "lon": -52.49360388455013, "alt_km": 1338.0122212707365, "timestamp": "2025-12-20T09:36:01.289464+00:00", "meta": {"OBJECT_NAME": "SENTINEL-6A", "OBJECT_ID": "2020-086A", "EPOCH": "2025-12-19T19:45:19.960416", "MEAN_MOTION": 12.80930846, "ECCENTRICITY": 0.0007715, "INCLINATION": 66.0393, "RA_OF_ASC_NODE": 147.5954, "ARG_OF_PERICENTER": 269.316, "MEAN_ANOMALY": 90.6971, "EPHEMERIS_TYPE": 0, "CLASSIFICATION_TYPE": "U", "NORAD_CAT_ID": 46984, "ELEMENT_SET_NO": 999, "REV_AT_EPOCH": 23735, "BSTAR": -1.8192625e-05, "MEAN_MOTION_DOT": -6.5e-07, "MEAN_MOTION_DDOT": 0}, "tle": {"line1": "1 46984U 20086A   25353.82314769 -.00000065  00000+0 -18193-4 0  9993", "line2": "2 46984  66.0393 147.5954 0007715 269.3160  90.6971 12.80930846237355"}}, "geometry": {"type": "Point", "coordinates": [-52.49360388455013, 36.059886804182256]}}, {"type": "Feature", "properties": {"norad_id": 48079, "name": "GAOFEN-12 02", "group": "resource", "lat": 57.91905728468567, "lon": -178.68975724283447, "alt_km": 619.5420318869847, "timestamp": "2025-12-20T09:36:01.289474+00:00", "meta": {"OBJECT_NAME": "GAOFEN-12 02", "OBJECT_ID": "2021-026A", "EPOCH": "2025-12-20T05:48:42.592032", "MEAN_MOTION": 14.80683289, "ECCENTRICITY": 0.00036, "INCLINATION": 97.9854, "RA_OF_ASC_NODE": 348.2124, "ARG_OF_PERICENTER": 86.1148, "MEAN_ANOMALY": 274.0476, "EPHEMERIS_TYPE": 0, "CLASSIFICATION_TYPE": "U", "NORAD_CAT_ID": 48079, "ELEMENT_SET_NO": 999, "REV_AT_EPOCH": 25528, "BSTAR": 5.0146e-05, "MEAN_MOTION_DOT": 3.33e-06, "MEAN_MOTION_DDOT": 0}, "tle": {"line1": "1 48079U 21026A   25354.24215963  .00000333  00000+0  50146-4 0  9998", "line2": "2 48079  97.9854 348.2124 0003600  86.1148 274.0476 14.80683289255284"}}, "geometry": {"type": "Point", "coordinates": [-178.68975724283447, 57.91905728468567]}}, {"type": "Feature", "properties": {"norad_id": 48268, "name": "PLEIADES NEO 3", "group": "resource", "lat": -35.07540265161509, "lon": -118.86028733143833, "alt_km": 630.8484845556504, "timestamp": "2025-12-20T09:36:01.289484+00:00", "meta": {"OBJECT_NAME": "PLEIADES NEO 3", "OBJECT_ID": "2021-034A", "EPOCH": "2025-12-20T05:23:23.628192", "MEAN_MOTION": 14.81672552, "ECCENTRICITY": 0.000132, "INCLINATION": 97.8951, "RA_OF_ASC_NODE": 66.5585, "ARG_OF_PERICENTER": 92.3196, "MEAN_ANOMALY": 267.8168, "EPHEMERIS_TYPE": 0, "CLASSIFICATION_TYPE": "U", "NORAD_CAT_ID": 48268, "ELEMENT_SET_NO": 999, "REV_AT_EPOCH": 25115, "BSTAR": 4.9011e-05, "MEAN_MOTION_DOT": 3.34e-06, "MEAN_MOTION_DDOT": 0}, "tle": {"line1": "1 48268U 21034A   25354.22457903  .00000334  00000+0  49011-4 0  9997", "line2": "2 48268  97.8951  66.5585 0001320  92.3196 267.8168 14.81672552251153"}}, "geometry": {"type": "Point", "coordinates": [-118.86028733143833, -35.07540265161509]}}, {"type": "Feature", "properties": {"norad_id": 49070, "name": "PLEIADES NEO 4", "group": "resource", "lat": 34.92205099910567, "lon": 61.16759957236856, "alt_km": 621.246482259382, "timestamp": "2025-12-20T09:36:01.289495+00:00", "meta": {"OBJECT_NAME": "PLEIADES NEO 4", "OBJECT_ID": "2021-073E", "EPOCH": "2025-12-20T04:34:45.131232", "MEAN_MOTION": 14.8167264, "ECCENTRICITY": 0.0001325, "INCLINATION": 97.8952, "RA_OF_ASC_NODE": 66.5213, "ARG_OF_PERICENTER": 92.3305, "MEAN_ANOMALY": 267.8059, "EPHEMERIS_TYPE": 0, "CLASSIFICATION_TYPE": "U", "NORAD_CAT_ID": 49070, "ELEMENT_SET_NO": 999, "REV_AT_EPOCH": 23486, "BSTAR": -3.0457e-05, "MEAN_MOTION_DOT": -2.92e-06, "MEAN_MOTION_DDOT": 0}, "tle": {"line1": "1 49070U 21073E   25354.19080013 -.00000292  00000+0 -30457-4 0  9991", "line2": "2 49070  97.8952  66.5213 0001325  92.3305 267.8059 14.81672640234867"}}, "geometry": {"type": "Point", "coordinates": [61.16759957236856, 34.92205099910567]}}, {"type": "Feature", "properties": {"norad_id": 49260, "name": "LANDSAT 9", "group": "resource", "lat": 80.03222376549209, "lon": -62.38076471336898, "alt_km": 694.3579943607538, "timestamp": "2025-12-20T09:36:01.289504+00:00", "meta": {"OBJECT_NAME": "LANDSAT 9", "OBJECT_ID": "2021-088A", "EPOCH": "2025-12-20T04:13:07.784256", "MEAN_MOTION": 14.57105039, "ECCENTRICITY": 0.0001104, "INCLINATION": 98.2085, "RA_OF_ASC_NODE": 62.1788, "ARG_OF_PERICENTER": 91.1503, "MEAN_ANOMALY": 268.9822, "EPHEMERIS_TYPE": 0, "CLASSIFICATION_TYPE": "U", "NORAD_CAT_ID": 49260, "ELEMENT_SET_NO": 999, "REV_AT_EPOCH": 22493, "BSTAR": 7.8911e-05, "MEAN_MOTION_DOT": 3.1e-06, "MEAN_MOTION_DDOT": 0}, "tle": {"line1": "1 49260U 21088A   25354.17578454  .00000310  00000+0  78911-4 0  9993", "line2": "2 49260  98.2085  62.1788 0001104  91.1503 268.9822 14.57105039224934"}}, "geometry": {"type": "Point", "coordinates": [-62.38076471336898, 80.03222376549209]}}, {"type": "Feature", "properties": {"norad_id": 51444, "name": "CSG-2", "group": "resource", "lat": 78.24080084135596, "lon": 133.9017282895156, "alt_km": 614.2347922647796, "timestamp": "2025-12-20T09:36:01.289515+00:00", "meta": {"OBJECT_NAME": "CSG-2", "OBJECT_ID": "2022-008A", "EPOCH": "2025-12-20T04:22:27.999264", "MEAN_MOTION": 14.82148425, "ECCENTRICITY": 0.0001438, "INCLINATION": 97.8797, "RA_OF_ASC_NODE": 175.3926, "ARG_OF_PERICENTER": 83.7735, "MEAN_ANOMALY": 276.3642, "EPHEMERIS_TYPE": 0, "CLASSIFICATION_TYPE": "U", "NORAD_CAT_ID": 51444, "ELEMENT_SET_NO": 999, "REV_AT_EPOCH": 21007, "BSTAR": -2.5387e-05, "MEAN_MOTION_DOT": -2.54e-06, "MEAN_MOTION_DDOT": 0}, "tle": {"line1": "1 51444U 22008A   25354.18226851 -.00000254  00000+0 -25387-4 0  9993", "line2": "2 51444  97.8797 175.3926 0001438  83.7735 276.3642 14.82148425210078"}}, "geometry": {"type": "Point", "coordinates": [133.9017282895156, 78.24080084135596]}}]}